NORAD_CAT_ID,OBJECT_NAME,OBJECT_TYPE,EPOCH,MEAN_MOTION,ECCENTRICITY,INCLINATION,RA_OF_ASC_NODE,ARG_OF_PERICENTER,MEAN_ANOMALY,BSTAR,MEAN_MOTION_DOT,MEAN_MOTION_DDOT,TLE_LINE0,TLE_LINE1,TLE_LINE2,SEMIMAJOR_AXIS,PERIOD,APOGEE,PERIGEE,DECAYED
53555.0,STARLINK-4504,PAYLOAD,2023-05-29 17:45:09,15.08844334,8.37e-05,53.2161,300.4083,85.9754,274.1334,0.00016342,2.314e-05,0.0,0 STARLINK-4504,1 53555U 22101AE  23149.73968865  .00002314  00000-0  16342-3 0  9999,2 53555  53.2161 300.4083 0000837  85.9754 274.1334 15.08844334 43749,6917.867,95.437,540.311,539.153,0.0
53555.0,STARLINK-4504,PAYLOAD,2023-05-30 09:39:00,15.08836382,9.33e-05,53.2159,297.4354,85.366,274.7439,0.00013547,1.869e-05,0.0,0 STARLINK-4504,1 53555U 22101AE  23150.40209218  .00001869  00000-0  13547-3 0  9993,2 53555  53.2159 297.4354 0000933  85.3660 274.7439 15.08836382 43183,6917.891,95.438,540.402,539.111,0.0
53555.0,STARLINK-4504,PAYLOAD,2023-05-30 12:49:47,15.08839546,8.72e-05,53.2171,296.84,88.9181,271.1912,1.4819e-05,-5.2e-07,0.0,0 STARLINK-4504,1 53555U 22101AE  23150.53457379 -.00000052  00000-0  14819-4 0  9998,2 53555  53.2171 296.8400 0000872  88.9181 271.1912 15.08839546 43868,6917.882,95.438,540.35,539.144,0.0
53555.0,STARLINK-4504,PAYLOAD,2023-05-30 16:00:32,15.08889124,6.19e-05,53.217,296.2455,81.4677,278.6385,-0.00065789,-0.00010757,0.0,0 STARLINK-4504,1 53555U 22101AE  23150.66703784 -.00010757  00000-0 -65789-3 0  9991,2 53555  53.2170 296.2455 0000619  81.4677 278.6385 15.08889124 43221,6917.73,95.434,540.023,539.167,0.0
53555.0,STARLINK-4504,PAYLOAD,2023-05-31 03:08:14,15.08845391,8.73e-05,53.2171,294.1641,86.2984,273.8108,5.2181e-05,5.43e-06,0.0,0 STARLINK-4504,1 53555U 22101AE  23151.13072741  .00000543  00000-0  52181-4 0  9999,2 53555  53.2171 294.1641 0000873  86.2984 273.8108 15.08845391 43297,6917.864,95.437,540.333,539.125,0.0
53555.0,STARLINK-4504,PAYLOAD,2023-05-31 14:15:56,15.08835592,8.01e-05,53.2173,292.0813,96.6887,263.4197,0.00019297,2.784e-05,0.0,0 STARLINK-4504,1 53555U 22101AE  23151.59440941  .00002784  00000-0  19297-3 0  9999,2 53555  53.2173 292.0813 0000801  96.6887 263.4197 15.08835592 44022,6917.894,95.438,540.313,539.205,0.0
53555.0,STARLINK-4504,PAYLOAD,2023-05-31 19:02:05,15.08849891,9.46e-05,53.2172,291.1888,96.8614,263.2486,9.4663e-05,1.22e-05,0.0,0 STARLINK-4504,1 53555U 22101AE  23151.79312158  .00001220  00000-0  94663-4 0  9994,2 53555  53.2172 291.1888 0000946  96.8614 263.2486 15.08849891 44052,6917.85,95.437,540.37,539.061,0.0
53555.0,STARLINK-4504,PAYLOAD,2023-06-01 14:06:44,15.08835726,9.93e-05,53.2175,287.6173,110.8974,249.2125,6.594e-05,7.62e-06,0.0,0 STARLINK-4504,1 53555U 22101AE  23152.58801084  .00000762  00000-0  65940-4 0  9999,2 53555  53.2175 287.6173 0000993 110.8974 249.2125 15.08835726 43516,6917.893,95.438,540.445,539.072,0.0
53555.0,STARLINK-4504,PAYLOAD,2023-06-02 13:57:31,15.08835655,0.0001141,53.2179,283.1564,108.7435,251.3681,-2.2441e-05,-6.45e-06,0.0,0 STARLINK-4504,1 53555U 22101AE  23153.58161538 -.00000645  00000-0 -22441-4 0  9994,2 53555  53.2179 283.1564 0001141 108.7435 251.3681 15.08835655 44321,6917.894,95.438,540.548,538.969,0.0
53555.0,STARLINK-4504,PAYLOAD,2023-06-02 15:32:54,15.08834987,0.0001055,53.2177,282.8584,107.7381,252.3727,-2.8848e-05,-7.47e-06,0.0,0 STARLINK-4504,1 53555U 22101AE  23153.64785590 -.00000747  00000-0 -28848-4 0  9991,2 53555  53.2177 282.8584 0001055 107.7381 252.3727 15.08834987 43676,6917.896,95.438,540.491,539.031,0.0
53555.0,STARLINK-4504,PAYLOAD,2023-06-02 18:43:41,15.08833329,0.0001088,53.2179,282.2645,106.2568,253.8544,-4.4482e-05,-9.95e-06,0.0,0 STARLINK-4504,1 53555U 22101AE  23153.78033791 -.00000995  00000-0 -44482-4 0  9992,2 53555  53.2179 282.2645 0001088 106.2568 253.8544 15.08833329 44355,6917.901,95.438,540.518,539.013,0.0
53555.0,STARLINK-4504,PAYLOAD,2023-06-03 13:48:18,15.08829949,9.87e-05,53.2178,278.7,104.3758,255.7344,0.00011832,1.595e-05,0.0,0 STARLINK-4504,1 53555U 22101AE  23154.57521767  .00001595  00000-0  11832-3 0  9992,2 53555  53.2178 278.7000 0000987 104.3758 255.7344 15.08829949 44471,6917.911,95.438,540.459,539.093,0.0
53555.0,STARLINK-4504,PAYLOAD,2023-06-04 00:56:00,15.0883874,9.65e-05,53.2178,276.6188,88.8051,271.3052,2.7896e-05,1.56e-06,0.0,0 STARLINK-4504,1 53555U 22101AE  23155.03889710  .00000156  00000-0  27896-4 0  9999,2 53555  53.2178 276.6188 0000965  88.8051 271.3052 15.08838740 43886,6917.884,95.438,540.417,539.082,0.0
53555.0,STARLINK-4504,PAYLOAD,2023-06-04 13:39:05,15.0883715,9.55e-05,53.2177,274.2399,85.0492,275.0609,7.5015e-05,9.06e-06,0.0,0 STARLINK-4504,1 53555U 22101AE  23155.56881874  .00000906  00000-0  75015-4 0  9999,2 53555  53.2177 274.2399 0000955  85.0492 275.0609 15.08837150 44626,6917.889,95.438,540.415,539.093,0.0
53555.0,STARLINK-4504,PAYLOAD,2023-06-04 18:25:14,15.08845148,8.78e-05,53.2172,273.3485,97.5664,262.5428,0.00011388,1.525e-05,0.0,0 STARLINK-4504,1 53555U 22101AE  23155.76753217  .00001525  00000-0  11388-3 0  9990,2 53555  53.2172 273.3485 0000878  97.5664 262.5428 15.08845148 44659,6917.865,95.437,540.337,539.122,0.0
53555.0,STARLINK-4504,PAYLOAD,2023-06-05 08:43:43,15.08835396,8.82e-05,53.215,270.6703,83.9119,276.1974,7.8837e-05,9.67e-06,0.0,0 STARLINK-4504,1 53555U 22101AE  23156.36369979  .00000967  00000-0  78837-4 0  9997,2 53555  53.2150 270.6703 0000882  83.9119 276.1974 15.08835396 44085,6917.894,95.438,540.37,539.149,0.0
53555.0,STARLINK-4504,PAYLOAD,2023-06-05 13:29:52,15.08843404,7.55e-05,53.2175,269.7804,91.1916,268.9162,8.6025e-05,1.082e-05,0.0,0 STARLINK-4504,1 53555U 22101AE  23156.56241498  .00001082  00000-0  86025-4 0  9991,2 53555  53.2175 269.7804 0000755  91.1916 268.9162 15.08843404 44771,6917.87,95.437,540.257,539.213,0.0
53555.0,STARLINK-4504,PAYLOAD,2023-06-05 16:40:38,15.08847069,7.89e-05,53.2167,269.1844,80.0529,280.0552,0.00010601,1.4e-05,0.0,0 STARLINK-4504,1 53555U 22101AE  23156.69489213  .00001400  00000-0  10601-3 0  9994,2 53555  53.2167 269.1844 0000789  80.0529 280.0552 15.08847069 44795,6917.859,95.437,540.27,539.178,0.0
53555.0,STARLINK-4504,PAYLOAD,2023-06-06 08:34:30,15.08838147,8.49e-05,53.2165,266.2104,79.9227,280.186,4.5308e-05,4.33e-06,0.0,0 STARLINK-4504,1 53555U 22101AE  23157.35729900  .00000433  00000-0  45308-4 0  9996,2 53555  53.2165 266.2104 0000849  79.9227 280.1860 15.08838147 44238,6917.886,95.438,540.338,539.164,0.0
53555.0,STARLINK-4504,PAYLOAD,2023-06-06 11:45:16,15.08841532,9.91e-05,53.2171,265.616,79.4906,280.6197,5.6751e-05,6.16e-06,0.0,0 STARLINK-4504,1 53555U 22101AE  23157.48977695  .00000616  00000-0  56751-4 0  9993,2 53555  53.2171 265.6160 0000991  79.4906 280.6197 15.08841532 44912,6917.876,95.437,540.426,539.055,0.0
53555.0,STARLINK-4504,PAYLOAD,2023-06-06 14:56:02,15.0884701,9.31e-05,53.2168,265.0218,78.9484,281.1613,3.0296e-05,1.95e-06,0.0,0 STARLINK-4504,1 53555U 22101AE  23157.62225378  .00000195  00000-0  30296-4 0  9991,2 53555  53.2168 265.0218 0000931  78.9484 281.1613 15.08847010 44270,6917.859,95.437,540.368,539.08,0.0
53555.0,STARLINK-4504,PAYLOAD,2023-06-07 06:49:54,15.08835045,8.63e-05,53.2173,262.0487,86.1208,273.9883,3.5188e-05,2.72e-06,0.0,0 STARLINK-4504,1 53555U 22101AE  23158.28466062  .00000272  00000-0  35188-4 0  9992,2 53555  53.2173 262.0487 0000863  86.1208 273.9883 15.08835045 44374,6917.896,95.438,540.358,539.164,0.0
53555.0,STARLINK-4504,PAYLOAD,2023-06-07 16:22:13,15.08843782,8.46e-05,53.2169,260.2644,81.5302,278.5786,1.7801e-05,-4e-08,0.0,0 STARLINK-4504,1 53555U 22101AE  23158.68209552 -.00000004  00000-0  17801-4 0  9991,2 53555  53.2169 260.2644 0000846  81.5302 278.5786 15.08843782 44436,6917.869,95.437,540.319,539.149,0.0
53555.0,STARLINK-4504,PAYLOAD,2023-06-08 06:40:41,15.08838122,0.0001128,53.2154,257.5875,78.0142,282.0976,3.7443e-05,3.08e-06,0.0,0 STARLINK-4504,1 53555U 22101AE  23159.27825949  .00000308  00000-0  37443-4 0  9991,2 53555  53.2154 257.5875 0001128  78.0142 282.0976 15.08838122 44525,6917.886,95.438,540.531,538.971,0.0
53555.0,STARLINK-4504,PAYLOAD,2023-06-08 13:02:13,15.08842358,9.38e-05,53.2159,256.3979,77.9213,282.1884,3.5232e-05,2.73e-06,0.0,0 STARLINK-4504,1 53555U 22101AE  23159.54321684  .00000273  00000-0  35232-4 0  9993,2 53555  53.2159 256.3979 0000938  77.9213 282.1884 15.08842358 45220,6917.873,95.437,540.387,539.089,0.0
53555.0,STARLINK-4504,PAYLOAD,2023-06-09 12:53:00,15.08855571,8.45e-05,53.2159,251.9376,76.5414,283.5672,-0.0001365,-2.46e-05,0.0,0 STARLINK-4504,1 53555U 22101AE  23160.53681353 -.00002460  00000-0 -13650-3 0  9997,2 53555  53.2159 251.9376 0000845  76.5414 283.5672 15.08855571 45374,6917.833,95.437,540.282,539.113,0.0
53555.0,STARLINK-4504,PAYLOAD,2023-06-10 09:33:02,15.08836579,9.36e-05,53.2166,248.0729,79.3946,280.7151,3.0767e-05,2.02e-06,0.0,0 STARLINK-4504,1 53555U 22101AE  23161.39794289  .00000202  00000-0  30767-4 0  9994,2 53555  53.2166 248.0729 0000936  79.3946 280.7151 15.08836579 44842,6917.891,95.438,540.403,539.108,0.0
53555.0,STARLINK-4504,PAYLOAD,2023-06-10 15:54:34,15.08843615,8.67e-05,53.2164,246.8831,73.6214,286.4873,8.4715e-05,1.061e-05,0.0,0 STARLINK-4504,1 53555U 22101AE  23161.66289681  .00001061  00000-0  84715-4 0  9995,2 53555  53.2164 246.8831 0000867  73.6214 286.4873 15.08843615 44885,6917.869,95.437,540.334,539.135,0.0
53555.0,STARLINK-4504,PAYLOAD,2023-06-11 01:26:53,15.08836058,9.16e-05,53.2163,245.0975,87.643,272.4667,1.9502e-05,2.3e-07,0.0,0 STARLINK-4504,1 53555U 22101AE  23162.06034388  .00000023  00000-0  19502-4 0  9991,2 53555  53.2163 245.0975 0000916  87.6430 272.4667 15.08836058 44940,6917.892,95.438,540.391,539.124,0.0
53555.0,STARLINK-4504,PAYLOAD,2023-06-11 14:09:58,15.0883986,9.17e-05,53.2162,242.7202,86.2218,273.8879,4.7987e-05,4.76e-06,0.0,0 STARLINK-4504,1 53555U 22101AE  23162.59026161  .00000476  00000-0  47987-4 0  9999,2 53555  53.2162 242.7202 0000917  86.2218 273.8879 15.08839860 45682,6917.881,95.438,540.38,539.111,0.0
